 Automated mail xmit by MAIL_REQUEST, PID=   111546 Wed Nov 30 07:06:04 2016
++++++++++++++++++++++++++++++++ (part 1 of 1)  +++++++++++++++++++++++++++++++

*******************************************************************************
 Revised: Nov 05, 2015          Charon / (Pluto)                            901

 Fit to all available observations including New Horizons encounter tracking.

 SATELLITE GENERAL PHYSICAL PROPERTIES (PLU042, IAU2009, and derived values):
  GM (km^3/s^2)           = 102.271      Density (g cm^-3)      = 1.65
  Radius (km)             = 605          Geometric Albedo       = 0.372 +- .012
  Mass (10^21 kg )        =   1.53       Hill Sphere radius, km = 664
  Surface gravity (cm/s^2)=  27.9        Escape velocity, km/s  = 0.581

 SATELLITE GENERAL ORBITAL DATA:
  Semi-major axis, a (km) =  1959        Orbital period, days   = 6.38723
  Eccentricity, e         =  0.0002
*******************************************************************************


*******************************************************************************
Ephemeris / MAIL_REQUEST Wed Nov 30 07:06:03 2016 Pasadena, USA  / Horizons
*******************************************************************************
Target body name: Charon (901)                    {source: plu055l_merged}
Center body name: Solar System Barycenter (0)     {source: DE431mx}
Center-site name: BODY CENTER
*******************************************************************************
Start time      : A.D. 2016-Nov-30 00:00:00.0000 TDB
Stop  time      : A.D. 2016-Dec-30 00:00:00.0000 TDB
Step-size       : 720 minutes
*******************************************************************************
Center geodetic : 0.00000000,0.00000000,0.0000000 {E-lon(deg),Lat(deg),Alt(km)}
Center cylindric: 0.00000000,0.00000000,0.0000000 {E-lon(deg),Dxy(km),Dz(km)}
Center radii    : (undefined)
Output units    : KM-S
Output type     : GEOMETRIC cartesian states
Output format   : 2x (pos. & vel. w/uncertainties: XYZ)
Reference frame : ICRF/J2000.0
Coordinate systm: Ecliptic and Mean Equinox of Reference Epoch
*******************************************************************************
JDTDB
 State   : X       Y        Z     VX       VY        VZ
 1-sigma : X_s     Y_s      Z_s   VX_s     VY_s      VZ_s
*******************************************************************************************************************************************************
$$SOE
2457752.500000000 = A.D. 2016-Dec-30 00:00:00.0000 TDB
 XYZ   :  1.444719380359591E+09  -4.757094495608291E+09   9.112476993608665E+07   5.177801004326440E+00   3.063255601871329E-01  -1.580074244605717E+00
 sigmas:                   n.a.                    n.a.                    n.a.                    n.a.                    n.a.                    n.a.
